[{"OBJECT_NAME":"STARLINK-31571","OBJECT_ID":"2024-060Q","EPOCH":"2026-03-09T13:53:05.051616","MEAN_MOTION":15.27572637,"ECCENTRICITY":7.23e-5,"INCLINATION":42.9986,"RA_OF_ASC_NODE":260.6673,"ARG_OF_PERICENTER":274.3865,"MEAN_ANOMALY":85.6904,"EPHEMERIS_TYPE":0,"CLASSIFICATION_TYPE":"U","NORAD_CAT_ID":59362,"ELEMENT_SET_NO":999,"REV_AT_EPOCH":11004,"BSTAR":1.3427e-5,"MEAN_MOTION_DOT":1.08e-6,"MEAN_MOTION_DDOT":0},{"OBJECT_NAME":"OBJECT V","OBJECT_ID":"2025-155V","EPOCH":"2026-03-09T20:35:20.067360","MEAN_MOTION":15.27583301,"ECCENTRICITY":0.00080353,"INCLINATION":97.4485,"RA_OF_ASC_NODE":37.249,"ARG_OF_PERICENTER":152.8264,"MEAN_ANOMALY":207.3397,"EPHEMERIS_TYPE":0,"CLASSIFICATION_TYPE":"U","NORAD_CAT_ID":64895,"ELEMENT_SET_NO":999,"REV_AT_EPOCH":6557,"BSTAR":0.00051002361,"MEAN_MOTION_DOT":0.00013705,"MEAN_MOTION_DDOT":0}]
